ORBVIEW 2 (SEASTAR)     
1 24883U 97037A   12352.85264589  .00000234  00000-0  10201-3 0  9122
2 24883  98.4350 106.3086 0001683 309.2845  50.8182 14.32561000816695
METEOSAT-7              
1 24932U 97049B   12352.70270782  .00000052  00000-0  10000-3 0  4148
2 24932   8.0731  54.2472 0002091 190.5934 152.2957  1.00267564 56012
NOAA 15                 
1 25338U 98030A   12352.51361258  .00000046  00000-0  38352-4 0  5323
2 25338  98.7071 337.8679 0009829 298.5702  61.4500 14.25157986758968
NOAA 16                 
1 26536U 00055A   12352.46496056  .00000456  00000-0  27026-3 0   115
2 26536  99.0697  37.1973 0009811 288.7627  71.2488 14.12820509630914
GOES 12                 
1 26871U 01031A   12352.31433955 -.00000293  00000-0  10000-3 0  8544
2 26871   2.6611  71.0867 0002059 218.1869 210.7041  1.00270715 41836
FENGYUN 1D              
1 27431U 02024B   12352.91718952 -.00000044  00000-0 -64406-6 0  7893
2 27431  98.7908 314.9857 0015974  33.9287 326.2890 14.09381013545065
NOAA 17                 
1 27453U 02032A   12352.63276385  .00000099  00000-0  60163-4 0  9528
2 27453  98.3215  10.2690 0011279 343.3054  16.7740 14.24521359544870
METEOSAT-8 (MSG-1)      
1 27509U 02040B   12351.11921684  .00000053  00000-0  10000-3 0  1616
2 27509   1.7448  61.7596 0001608 158.6551 276.8635  1.00271666 37814
KALPANA-1 (METSAT 1)    
1 27525U 02043A   12352.61282576 -.00000087  00000-0  10000-3 0  5929
2 27525   3.2641  68.5520 0006210 198.1323 114.5400  1.00271381 37627
INSAT-3A                
1 27714U 03013A   12353.23072038 -.00000265  00000-0  10000-3 0  4462
2 27714   0.0709 258.7900 0006071  11.1634 353.8429  1.00270763 35536
FENGYUN 2C              
1 28451U 04042A   12352.89885221 -.00000367  00000-0  10000-3 0  5689
2 28451   4.3637  64.2327 0001943  60.4856  49.4614  1.00267608 29880
HIMAWARI-6 (MTSAT-1R)   
1 28622U 05006A   12349.63088213 -.00000285  00000-0  10000-3 0  7988
2 28622   0.0091 251.0469 0000657 169.6947  30.1038  1.00268075 28553
NOAA 18                 
1 28654U 05018A   12352.63373567 -.00000027  00000-0  10513-4 0  4340
2 28654  99.0738 312.4924 0014509   2.3078 357.8140 14.11745447390443
METEOSAT-9 (MSG-2)      
1 28912U 05049B   12351.15054029 -.00000014  00000-0  10000-3 0  3330
2 28912   0.3733 347.6243 0002415 118.7297  32.6134  1.00275229 25662
MTSAT-2                 
1 28937U 06004A   12351.46260345 -.00000250  00000-0  10000-3 0  2963
2 28937   0.0436  74.1202 0002548 203.3494 119.5881  1.00271561 25052
FORMOSAT-3 FM6          
1 29047U 06011A   12352.19123042  .00000015  00000-0  22404-4 0  9807
2 29047  71.9809 297.3156 0049818 104.7205 255.9443 14.27574450350212
FORMOSAT-3 FM1          
1 29048U 06011B   12352.83438261  .00000393  00000-0  17471-3 0   606
2 29048  71.9673 209.9721 0043437  54.3582 306.1574 14.27579375352787
FORMOSAT-3 FM5          
1 29049U 06011C   12353.05106580  .00000365  00000-0  16364-3 0    12
2 29049  72.0205   5.7454 0033538 107.6576 252.8230 14.27595532348595
FORMOSAT-3 FM3          
1 29050U 06011D   12352.61515120  .00001138  00000-0  26646-3 0  3262
2 29050  72.0194  66.5739 0054919 255.1850 104.3197 14.55605031357281
FORMOSAT-3 FM4          
1 29051U 06011E   12352.45425326  .00000376  00000-0  16522-3 0   546
2 29051  72.0079 273.8062 0069259 337.0622  22.7420 14.27599408351090
FORMOSAT-3 FM2          
1 29052U 06011F   12352.13002567  .00000364  00000-0  16273-3 0   742
2 29052  72.0349 340.5615 0038865  73.9553 286.5858 14.27649715349353
GOES 13                 
1 29155U 06018A   12352.42107424 -.00000258  00000-0  10000-3 0  3404
2 29155   0.2645  98.0055 0001383 342.0812  83.4387  1.00269471 24080
METOP-A                 
1 29499U 06044A   12352.62890313 -.00000088  00000-0 -20134-4 0  9208
2 29499  98.6772  49.0520 0000852 149.0146 211.1054 14.21495555319787
FENGYUN 2D              
1 29640U 06053A   12351.88212678 -.00000214  00000-0  10000-3 0  5740
2 29640   2.7651  72.8770 0000477 317.9712  99.8857  1.00272496 22127
FENGYUN 3A              
1 32958U 08026A   12353.15729503  .00000061  00000-0  49521-4 0  5188
2 32958  98.6310  57.2136 0009901 357.9454   2.1687 14.19317234236387
NOAA 19                 
1 33591U 09005A   12352.61197851  .00000314  00000-0  19776-3 0  6196
2 33591  98.8840 290.2903 0013493 220.7787 139.2369 14.11433262198882
GOES 14                 
1 35491U 09033A   12352.37886384 -.00000189  00000-0  10000-3 0  7538
2 35491   0.1697 261.6294 0005107 278.9599 312.5550  1.00264756 12756
METEOR-M 1              
1 35865U 09049A   12353.16602932  .00000005  00000-0  21637-4 0   621
2 35865  98.6303  43.8007 0001652 232.9713 127.1315 14.21876960168741
GOES 15                 
1 36411U 10008A   12352.40280520  .00000083  00000-0  10000-3 0  3627
2 36411   0.1923 257.7366 0002331  20.6827 177.5479  1.00269477 10256
COMS 1                  
1 36744U 10032A   12349.85754934 -.00000350  00000-0  10000-3 0  4969
2 36744   0.0316  42.1494 0000404 208.8494 269.8701  1.00270371  9196
FENGYUN 3B              
1 37214U 10059A   12353.10976656  .00000007  00000-0  24232-4 0  3411
2 37214  98.7821 293.2464 0000572 173.5927 186.5258 14.19301196109877
ELEKTRO-L 1 (GOMS 2)    
1 37344U 11001A   12352.86121873 -.00000104  00000-0  10000-3 0  4965
2 37344   0.0341 211.1086 0001474 359.5465 262.3210  1.00270759  7052
SUOMI NPP               
1 37849U 11061A   12352.64028540  .00000223  00000-0  12637-3 0  3681
2 37849  98.7349 287.4306 0000754 134.9105 225.2116 14.19553570 59061
FENGYUN 2F              
1 38049U 12002A   12349.99258546 -.00000362  00000-0  10000-3 0  2502
2 38049   1.6724 277.5399 0007474 238.2205  38.4618  1.00269232  3437
METOP-B                 
1 38771U 12049A   12353.01782763 -.00000054  00000-0 -44208-5 0   906
2 38771  98.7297  49.6585 0002143   4.0217 356.0974 14.21483362 12978
